
# Worst residual: 12.71 km
# MJD 60610.000000 (2024 Oct 27  0:00)
2013-070B = NORAD 39459 = UX29E26 = Chang'e 3 booster
1 39459U 13070B   24301.49919926  .00000000  00000-0  00000-0 2 23976
2 39459 033.4266 150.8649 3086342 103.8187 208.2100 00.04663273    07

# Worst residual: 12.19 km
# MJD 60611.000000 (2024 Oct 28  0:00)
2013-070B = NORAD 39459 = UX29E26 = Chang'e 3 booster
1 39459U 13070B   24302.49919926  .00000000  00000-0  00000-0 2 23977
2 39459 033.4546 150.7895 3123951 103.6772 225.6146 00.04676208    01

# Worst residual: 13.08 km
# MJD 60612.000000 (2024 Oct 29  0:00)
2013-070B = NORAD 39459 = UX29E26 = Chang'e 3 booster
1 39459U 13070B   24303.49919926  .00000000  00000-0  00000-0 2 23978
2 39459 033.4787 150.7440 3154442 103.4855 243.1007 00.04680341    07

# Worst residual: 13.49 km
# MJD 60613.000000 (2024 Oct 30  0:00)
2013-070B = NORAD 39459 = UX29E26 = Chang'e 3 booster
1 39459U 13070B   24304.49919926  .00000000  00000-0  00000-0 2 23979
2 39459 033.4886 150.7310 3179158 103.2027 260.6395 00.04675081    02

# Worst residual: 13.84 km
# MJD 60614.000000 (2024 Oct 31  0:00)
2013-070B = NORAD 39459 = UX29E26 = Chang'e 3 booster
1 39459U 13070B   24305.49919926  .00000000  00000-0  00000-0 2 23970
2 39459 033.4719 150.7428 3200461 102.8244 278.1717 00.04660762    07

# Worst residual: 12.41 km
# MJD 60615.000000 (2024 Nov  1  0:00)
2013-070B = NORAD 39459 = UX29E26 = Chang'e 3 booster
1 39459U 13070B   24306.49919926  .00000000  00000-0  00000-0 2 23971
2 39459 033.4300 150.7529 3221657 102.4462 295.5707 00.04640931    01

# Worst residual: 9.50 km
# MJD 60616.000000 (2024 Nov  2  0:00)
2013-070B = NORAD 39459 = UX29E26 = Chang'e 3 booster
1 39459U 13070B   24307.49919926  .00000000  00000-0  00000-0 2 23972
2 39459 033.3736 150.7363 3243101 102.1718 312.7302 00.04619603    03

# Worst residual: 8.50 km
# MJD 60617.000000 (2024 Nov  3  0:00)
2013-070B = NORAD 39459 = UX29E26 = Chang'e 3 booster
1 39459U 13070B   24308.49919926  .00000000  00000-0  00000-0 2 23973
2 39459 033.3191 150.6786 3261723 102.1108 329.5717 00.04602929    08

# Worst residual: 10.84 km
# MJD 60618.000000 (2024 Nov  4  0:00)
2013-070B = NORAD 39459 = UX29E26 = Chang'e 3 booster
1 39459U 13070B   24309.49919926  .00000000  00000-0  00000-0 2 23974
2 39459 033.2847 150.5830 3272043 102.2854 346.1349 00.04595789    01

# Worst residual: 13.53 km
# MJD 60619.000000 (2024 Nov  5  0:00)
2013-070B = NORAD 39459 = UX29E26 = Chang'e 3 booster
1 39459U 13070B   24310.49919926  .00000000  00000-0  00000-0 2 23976
2 39459 033.2840 150.4610 3272095 102.6163 002.5724 00.04597233    09

# Worst residual: 16.95 km
# MJD 60620.000000 (2024 Nov  6  0:00)
2013-070B = NORAD 39459 = UX29E26 = Chang'e 3 booster
1 39459U 13070B   24311.49919926  .00000000  00000-0  00000-0 2 23977
2 39459 033.3326 150.3305 3265644 103.0163 019.0021 00.04600537    01

# Worst residual: 21.16 km
# MJD 60621.000000 (2024 Nov  7  0:00)
2013-070B = NORAD 39459 = UX29E26 = Chang'e 3 booster
1 39459U 13070B   24312.49919926  .00000000  00000-0  00000-0 2 23978
2 39459 033.4643 150.2215 3254660 103.3729 035.4862 00.04603281    04

# Worst residual: 24.71 km
# MJD 60622.000000 (2024 Nov  8  0:00)
2013-070B = NORAD 39459 = UX29E26 = Chang'e 3 booster
1 39459U 13070B   24313.49919926  .00000000  00000-0  00000-0 2 23979
2 39459 033.7188 150.2263 3234997 103.1485 052.4508 00.04624090    09

# Worst residual: 45.82 km
# MJD 60623.000000 (2024 Nov  9  0:00)
2013-070B = NORAD 39459 = UX29E26 = Chang'e 3 booster
1 39459U 13070B   24314.49919926  .00000000  00000-0  00000-0 2 23970
2 39459 034.0302 150.4312 3219472 101.4211 070.8679 00.04694270    07

# Worst residual: 40.90 km
# MJD 60624.000000 (2024 Nov 10  0:00)
2013-070B = NORAD 39459 = UX29E26 = Chang'e 3 booster
1 39459U 13070B   24315.49919926  .00000000  00000-0  00000-0 2 23971
2 39459 034.1654 150.6002 3230909 098.6586 090.8742 00.04802512    09

# Worst residual: 31.22 km
# MJD 60625.000000 (2024 Nov 11  0:00)
2013-070B = NORAD 39459 = UX29E26 = Chang'e 3 booster
1 39459U 13070B   24316.49919926  .00000000  00000-0  00000-0 2 23972
2 39459 034.1119 150.4776 3262794 096.6472 110.8862 00.04887815    05

# Worst residual: 28.37 km
# MJD 60626.000000 (2024 Nov 12  0:00)
2013-070B = NORAD 39459 = UX29E26 = Chang'e 3 booster
1 39459U 13070B   24317.49919926  .00000000  00000-0  00000-0 2 23973
2 39459 034.0179 150.1605 3282344 095.6650 130.3538 00.04933998    09

# Worst residual: 23.57 km
# MJD 60627.000000 (2024 Nov 13  0:00)
2013-070B = NORAD 39459 = UX29E26 = Chang'e 3 booster
1 39459U 13070B   24318.49919926  .00000000  00000-0  00000-0 2 23974
2 39459 033.9579 149.8133 3288983 095.1901 149.4336 00.04954797    08

# Worst residual: 19.45 km
# MJD 60628.000000 (2024 Nov 14  0:00)
2013-070B = NORAD 39459 = UX29E26 = Chang'e 3 booster
1 39459U 13070B   24319.49919926  .00000000  00000-0  00000-0 2 23975
2 39459 033.9376 149.5162 3290799 094.8617 168.3335 00.04963240    02

# Worst residual: 16.44 km
# MJD 60629.000000 (2024 Nov 15  0:00)
2013-070B = NORAD 39459 = UX29E26 = Chang'e 3 booster
1 39459U 13070B   24320.49919926  .00000000  00000-0  00000-0 2 23977
2 39459 033.9439 149.2871 3295413 094.5458 187.1528 00.04966798    08
